{
  "type": "FeatureCollection",
  "features": [
    {
      "type": "Feature",
      "properties": {
        "norad_id": 44709,
        "name": "BEIDOU-3 IGSO-3 (C40)",
        "group": "gnss",
        "lat": 7.436806771122363,
        "lon": 97.75701174987462,
        "alt_km": 35617.03402749905,
        "timestamp": "2025-12-03T17:47:50.960755+00:00",
        "meta_object_name": "BEIDOU-3 IGSO-3 (C40)",
        "meta_object_id": "2019-073A",
        "meta_epoch": "2025-11-20T07:11:22.740000",
        "meta_mean_motion": 1.00250097,
        "meta_eccentricity": 0.0044538,
        "meta_inclination": 55.163,
        "meta_ra_of_asc_node": 283.159,
        "meta_arg_of_pericenter": 191.5856,
        "meta_mean_anomaly": 168.2409,
        "meta_ephemeris_type": 0,
        "meta_classification_type": "U",
        "meta_norad_cat_id": 44709,
        "meta_element_set_no": 999,
        "meta_rev_at_epoch": 2236,
        "meta_bstar": 0,
        "meta_mean_motion_dot": -2.06e-06,
        "meta_mean_motion_ddot": 0,
        "tle_line1": "1 44709U 19073A   25324.29956875 -.00000206  00000+0  00000+0 0  9998",
        "tle_line2": "2 44709  55.1630 283.1590 0044538 191.5856 168.2409  1.00250097 22360"
      },
      "geometry": {
        "type": "Point",
        "coordinates": [
          97.75701174987462,
          7.436806771122363
        ]
      }
    },
    {
      "type": "Feature",
      "properties": {
        "norad_id": 44793,
        "name": "BEIDOU-3 M22 (C44)",
        "group": "gnss",
        "lat": 51.23516760289328,
        "lon": 10.98171148228033,
        "alt_km": 21512.167054907877,
        "timestamp": "2025-12-03T17:47:50.960769+00:00",
        "meta_object_name": "BEIDOU-3 M22 (C44)",
        "meta_object_id": "2019-078A",
        "meta_epoch": "2025-12-02T00:28:58.554624",
        "meta_mean_motion": 1.86231817,
        "meta_eccentricity": 0.00056333,
        "meta_inclination": 54.1183,
        "meta_ra_of_asc_node": 306.7625,
        "meta_arg_of_pericenter": 22.616,
        "meta_mean_anomaly": 337.398,
        "meta_ephemeris_type": 0,
        "meta_classification_type": "U",
        "meta_norad_cat_id": 44793,
        "meta_element_set_no": 999,
        "meta_rev_at_epoch": 4097,
        "meta_bstar": 0,
        "meta_mean_motion_dot": -6.1e-07,
        "meta_mean_motion_ddot": 0,
        "tle_line1": "1 44793U 19078A   25336.02012216 -.00000061  00000+0  00000+0 0  9991",
        "tle_line2": "2 44793  54.1183 306.7625 0005633  22.6160 337.3980  1.86231817 40974"
      },
      "geometry": {
        "type": "Point",
        "coordinates": [
          10.98171148228033,
          51.23516760289328
        ]
      }
    },
    {
      "type": "Feature",
      "properties": {
        "norad_id": 44794,
        "name": "BEIDOU-3 M21 (C43)",
        "group": "gnss",
        "lat": -14.512820648508765,
        "lon": -64.16082367773117,
        "alt_km": 21520.966580490436,
        "timestamp": "2025-12-03T17:47:50.960781+00:00",
        "meta_object_name": "BEIDOU-3 M21 (C43)",
        "meta_object_id": "2019-078B",
        "meta_epoch": "2025-12-01T02:00:26.030304",
        "meta_mean_motion": 1.86227539,
        "meta_eccentricity": 0.00038706,
        "meta_inclination": 54.0922,
        "meta_ra_of_asc_node": 306.7607,
        "meta_arg_of_pericenter": 10.0971,
        "meta_mean_anomaly": 349.9036,
        "meta_ephemeris_type": 0,
        "meta_classification_type": "U",
        "meta_norad_cat_id": 44794,
        "meta_element_set_no": 999,
        "meta_rev_at_epoch": 4096,
        "meta_bstar": 0,
        "meta_mean_motion_dot": -5.7e-07,
        "meta_mean_motion_ddot": 0,
        "tle_line1": "1 44794U 19078B   25335.08363461 -.00000057  00000+0  00000+0 0  9993",
        "tle_line2": "2 44794  54.0922 306.7607 0003870  10.0971 349.9036  1.86227539 40963"
      },
      "geometry": {
        "type": "Point",
        "coordinates": [
          -64.16082367773117,
          -14.512820648508765
        ]
      }
    },
    {
      "type": "Feature",
      "properties": {
        "norad_id": 44850,
        "name": "COSMOS 2544 (759)",
        "group": "gnss",
        "lat": -50.12492491243986,
        "lon": 47.155824457335676,
        "alt_km": 19115.027696902485,
        "timestamp": "2025-12-03T17:47:50.960794+00:00",
        "meta_object_name": "COSMOS 2544 (759)",
        "meta_object_id": "2019-088A",
        "meta_epoch": "2025-12-02T21:04:19.473024",
        "meta_mean_motion": 2.13101821,
        "meta_eccentricity": 0.00136854,
        "meta_inclination": 65.4546,
        "meta_ra_of_asc_node": 80.2883,
        "meta_arg_of_pericenter": 248.8898,
        "meta_mean_anomaly": 110.9602,
        "meta_ephemeris_type": 0,
        "meta_classification_type": "U",
        "meta_norad_cat_id": 44850,
        "meta_element_set_no": 999,
        "meta_rev_at_epoch": 4653,
        "meta_bstar": 0,
        "meta_mean_motion_dot": -2.1e-07,
        "meta_mean_motion_ddot": 0,
        "tle_line1": "1 44850U 19088A   25336.87800316 -.00000021  00000+0  00000+0 0  9991",
        "tle_line2": "2 44850  65.4546  80.2883 0013685 248.8898 110.9602  2.13101821 46538"
      },
      "geometry": {
        "type": "Point",
        "coordinates": [
          47.155824457335676,
          -50.12492491243986
        ]
      }
    },
    {
      "type": "Feature",
      "properties": {
        "norad_id": 44864,
        "name": "BEIDOU-3 M19 (C41)",
        "group": "gnss",
        "lat": 2.0719271758147246,
        "lon": -112.1148101633314,
        "alt_km": 21542.684625430094,
        "timestamp": "2025-12-03T17:47:50.960808+00:00",
        "meta_object_name": "BEIDOU-3 M19 (C41)",
        "meta_object_id": "2019-090A",
        "meta_epoch": "2025-12-02T22:27:31.551840",
        "meta_mean_motion": 1.86231053,
        "meta_eccentricity": 0.00175607,
        "meta_inclination": 56.3847,
        "meta_ra_of_asc_node": 69.2872,
        "meta_arg_of_pericenter": 284.9296,
        "meta_mean_anomaly": 72.494,
        "meta_ephemeris_type": 0,
        "meta_classification_type": "U",
        "meta_norad_cat_id": 44864,
        "meta_element_set_no": 999,
        "meta_rev_at_epoch": 4057,
        "meta_bstar": 0,
        "meta_mean_motion_dot": -4.9e-07,
        "meta_mean_motion_ddot": 0,
        "tle_line1": "1 44864U 19090A   25336.93578185 -.00000049  00000+0  00000+0 0  9992",
        "tle_line2": "2 44864  56.3847  69.2872 0017560 284.9296  72.4940  1.86231053 40575"
      },
      "geometry": {
        "type": "Point",
        "coordinates": [
          -112.1148101633314,
          2.0719271758147246
        ]
      }
    },
    {
      "type": "Feature",
      "properties": {
        "norad_id": 44865,
        "name": "BEIDOU-3 M20 (C42)",
        "group": "gnss",
        "lat": -56.30821583502779,
        "lon": -25.73927142088523,
        "alt_km": 21498.78668085796,
        "timestamp": "2025-12-03T17:47:50.960820+00:00",
        "meta_object_name": "BEIDOU-3 M20 (C42)",
        "meta_object_id": "2019-090B",
        "meta_epoch": "2025-12-02T19:15:49.919904",
        "meta_mean_motion": 1.86231044,
        "meta_eccentricity": 0.00146831,
        "meta_inclination": 56.3861,
        "meta_ra_of_asc_node": 69.3259,
        "meta_arg_of_pericenter": 297.6742,
        "meta_mean_anomaly": 60.1134,
        "meta_ephemeris_type": 0,
        "meta_classification_type": "U",
        "meta_norad_cat_id": 44865,
        "meta_element_set_no": 999,
        "meta_rev_at_epoch": 4055,
        "meta_bstar": 0,
        "meta_mean_motion_dot": -4.8e-07,
        "meta_mean_motion_ddot": 0,
        "tle_line1": "1 44865U 19090B   25336.80266111 -.00000048  00000+0  00000+0 0  9991",
        "tle_line2": "2 44865  56.3861  69.3259 0014683 297.6742  60.1134  1.86231044 40559"
      },
      "geometry": {
        "type": "Point",
        "coordinates": [
          -25.73927142088523,
          -56.30821583502779
        ]
      }
    },
    {
      "type": "Feature",
      "properties": {
        "norad_id": 45344,
        "name": "BEIDOU-3 G2 (C60)",
        "group": "gnss",
        "lat": 0.8616724812180906,
        "lon": 59.84682431924225,
        "alt_km": 35793.91874576804,
        "timestamp": "2025-12-03T17:47:50.960831+00:00",
        "meta_object_name": "BEIDOU-3 G2 (C60)",
        "meta_object_id": "2020-017A",
        "meta_epoch": "2025-12-03T10:42:45.708768",
        "meta_mean_motion": 1.00270294,
        "meta_eccentricity": 0.0004622,
        "meta_inclination": 2.9825,
        "meta_ra_of_asc_node": 43.5644,
        "meta_arg_of_pericenter": 263.7837,
        "meta_mean_anomaly": 5.9314,
        "meta_ephemeris_type": 0,
        "meta_classification_type": "U",
        "meta_norad_cat_id": 45344,
        "meta_element_set_no": 999,
        "meta_rev_at_epoch": 2129,
        "meta_bstar": 0,
        "meta_mean_motion_dot": -1.25e-06,
        "meta_mean_motion_ddot": 0,
        "tle_line1": "1 45344U 20017A   25337.44636237 -.00000125  00000+0  00000+0 0  9992",
        "tle_line2": "2 45344   2.9825  43.5644 0004622 263.7837   5.9314  1.00270294 21295"
      },
      "geometry": {
        "type": "Point",
        "coordinates": [
          59.84682431924225,
          0.8616724812180906
        ]
      }
    }
  ]
}